[{"OBJECT_NAME":"STARLINK-36175","OBJECT_ID":"2025-293K","EPOCH":"2026-03-09T11:46:20.204832","MEAN_MOTION":14.98333042,"ECCENTRICITY":0.00028798,"INCLINATION":70.0001,"RA_OF_ASC_NODE":95.1336,"ARG_OF_PERICENTER":267.68,"MEAN_ANOMALY":92.403,"EPHEMERIS_TYPE":0,"CLASSIFICATION_TYPE":"U","NORAD_CAT_ID":67012,"ELEMENT_SET_NO":999,"REV_AT_EPOCH":1485,"BSTAR":0.0002615372,"MEAN_MOTION_DOT":3.029e-5,"MEAN_MOTION_DDOT":0},{"OBJECT_NAME":"PEGASUS DEB","OBJECT_ID":"1994-029AFH","EPOCH":"2026-03-05T17:45:37.026432","MEAN_MOTION":14.51722311,"ECCENTRICITY":0.02342531,"INCLINATION":81.9261,"RA_OF_ASC_NODE":220.9081,"ARG_OF_PERICENTER":300.5844,"MEAN_ANOMALY":57.2427,"EPHEMERIS_TYPE":0,"CLASSIFICATION_TYPE":"U","NORAD_CAT_ID":39322,"ELEMENT_SET_NO":999,"REV_AT_EPOCH":66781,"BSTAR":0.00070242434,"MEAN_MOTION_DOT":4.058e-5,"MEAN_MOTION_DDOT":0}]
